FLOCK 3P-84             
1 42021U 17008CB  18012.53686156  .00001236  00000-0  54326-4 0  9993
2 42021  97.4734  78.3057 0008914 171.8420 188.2964 15.23786795 50242
FLOCK 3P-59             
1 42022U 17008CC  18012.46978430  .00002270  00000-0  96956-4 0  9999
2 42022  97.4717  78.1527 0008326 171.8655 188.2719 15.23893883 49255
FLOCK 3P-32             
1 42023U 17008CD  18011.81895654  .00002984  00000-0  12696-3 0  9994
2 42023  97.4718  77.4940 0008362 170.4304 189.7094 15.23769113 50290
FLOCK 3P-71             
1 42024U 17008CE  18012.42735974  .00002353  00000-0  10071-3 0  9996
2 42024  97.4740  78.1709 0008624 173.8590 186.2754 15.23781193 49253
FLOCK 3P-77             
1 42025U 17008CF  18011.87260781  .00001140  00000-0  50337-4 0  9997
2 42025  97.4737  77.6700 0008498 175.4299 184.7017 15.23787606 50148
FLOCK 3P-80             
1 42026U 17008CG  18011.85452557  .00003094  00000-0  13094-3 0  9998
2 42026  97.4739  77.6889 0008117 175.2944 184.8370 15.23922282 48288
FLOCK 3P-66             
1 42027U 17008CH  18011.66416682  .00002026  00000-0  87096-4 0  9995
2 42027  97.4719  77.3986 0008135 187.9430 172.1680 15.23803748 50228
FLOCK 3P-65             
1 42028U 17008CJ  18011.79347747  .00001063  00000-0  47112-4 0  9990
2 42028  97.4718  77.5316 0008036 187.7617 172.3497 15.23800245 50140
FLOCK 3P-50             
1 42029U 17008CK  18011.92135132  .00001183  00000-0  52097-4 0  9990
2 42029  97.4721  77.6764 0007832 189.3805 170.7287 15.23799590 49487
FLOCK 3P-52             
1 42030U 17008CL  18011.85779768  .00001218  00000-0  53568-4 0  9996
2 42030  97.4717  77.5940 0007942 188.9175 171.1922 15.23788000 50247
FLOCK 3P-46             
1 42031U 17008CM  18011.72129295  .00001315  00000-0  57607-4 0  9993
2 42031  97.4714  77.4604 0007836 190.2809 169.8269 15.23784861 50253
FLOCK 3P-47             
1 42032U 17008CN  18011.85435763  .00001162  00000-0  51276-4 0  9994
2 42032  97.4713  77.5874 0007772 190.2909 169.8171 15.23782296 50121
FLOCK 3P-44             
1 42033U 17008CP  18011.84997372  .00000751  00000-0  34305-4 0  9990
2 42033  97.4719  77.6041 0007811 193.2329 166.8704 15.23670108 48874
FLOCK 3P-64             
1 42034U 17008CQ  18011.84904481  .00001513  00000-0  65844-4 0  9999
2 42034  97.4714  77.5878 0007615 192.5547 167.5502 15.23773728 50298
FLOCK 3P-63             
1 42035U 17008CR  18011.91241601  .00003084  00000-0  13115-3 0  9994
2 42035  97.4713  77.6503 0007610 191.9460 168.1598 15.23761164 48274
FLOCK 3P-62             
1 42036U 17008CS  18012.47934199  .00002198  00000-0  93564-4 0  9990
2 42036  97.4716  78.2781 0007654 191.9261 168.1796 15.24041312 49560
FLOCK 3P-38             
1 42037U 17008CT  18012.17372281  .00001413  00000-0  61732-4 0  9997
2 42037  97.4711  77.9166 0007343 191.7377 168.3690 15.23762639 50298
FLOCK 3P-39             
1 42038U 17008CU  18011.84301244  .00002379  00000-0  10188-3 0  9992
2 42038  97.4712  77.5771 0007520 193.2291 166.8749 15.23753382 50199
FLOCK 3P-15             
1 42039U 17008CV  18012.17660954  .00003149  00000-0  13375-3 0  9993
2 42039  97.4713  77.9106 0007488 191.5012 168.6055 15.23787623 49522
FLOCK 3P-13             
1 42040U 17008CW  18012.36755531  .00001256  00000-0  55287-4 0  9998
2 42040  97.4715  78.1246 0007341 192.0839 168.0223 15.23710265 49546
FLOCK 3P-55             
1 42041U 17008CX  18012.21488067  .00001553  00000-0  67572-4 0  9990
2 42041  97.4713  78.0164 0007003 196.1891 163.9123 15.23747325 50363
FLOCK 3P-56             
1 42042U 17008CY  18011.91364622  .00002471  00000-0  10404-3 0  9998
2 42042  97.4711  77.7908 0006936 195.8708 164.2313 15.24297168 50115
FLOCK 3P-81             
1 42043U 17008CZ  18011.86544528  .00001233  00000-0  54074-4 0  9995
2 42043  97.4737  77.6800 0008415 176.3869 183.7430 15.23857611 49488
FLOCK 3P-87             
1 42044U 17008DA  18011.94248085  .00001156  00000-0  51038-4 0  9995
2 42044  97.4733  77.7130 0008641 173.6708 186.4640 15.23771041 49648
FLOCK 3P-29             
1 42045U 17008DB  18012.46945969  .00001322  00000-0  57876-4 0  9990
2 42045  97.4715  78.1552 0008490 168.4876 191.6557 15.23797370 49572
FLOCK 3P-82             
1 42046U 17008DC  18012.46263536  .00002240  00000-0  95477-4 0  9993
2 42046  97.4736  78.2516 0008671 172.6556 187.4809 15.23978504 49629
FLOCK 3P-78             
1 42047U 17008DD  18012.46656913  .00001418  00000-0  61824-4 0  9994
2 42047  97.4736  78.2506 0008607 171.7651 188.3728 15.23804812 49556
FLOCK 3P-74             
1 42048U 17008DE  18012.47690583  .00001541  00000-0  67017-4 0  9994
2 42048  97.4738  78.2480 0008878 172.8459 187.2906 15.23760408 49556
FLOCK 3P-31             
1 42049U 17008DF  18012.15004565  .00001565  00000-0  67973-4 0  9996
2 42049  97.4714  77.8186 0008493 171.0116 189.1275 15.23782136 48969
FLOCK 3P-83             
1 42050U 17008DG  18011.82283632  .00001225  00000-0  53909-4 0  9992
2 42050  97.4734  77.5749 0008646 175.7957 184.3355 15.23757569 50184
FLOCK 3P-72             
1 42051U 17008DH  18011.86928113  .00000712  00000-0  32709-4 0  9992
2 42051  97.4743  77.6888 0008343 174.1608 185.9728 15.23634624 47789
LEMUR-2-REDFERN-GOES    
1 42059U 98067LA  18011.70100980  .00017917  00000-0  16896-3 0  9994
2 42059  51.6371  64.6671 0006550 358.7485   1.3494 15.67118218 48600
LEMUR-2-TRUTNA          
1 42067U 98067LC  18012.51529709  .00053565  00000-0  29029-3 0  9998
2 42067  51.6416  50.5411 0005609   9.7161 350.3948 15.79488823 48698
LEMUR-2-AUSTINTACIOUS   
1 42068U 98067LD  18011.71894319  .00020842  00000-0  17909-3 0  9998
2 42068  51.6375  62.5349 0006151 351.5839   8.5054 15.69296079 48564
LEMUR-2-TRUTNAHD        
1 42069U 98067LE  18012.39881599  .00018753  00000-0  17078-3 0  9995
2 42069  51.6381  60.3512 0005928   0.7573 359.3432 15.67951356 48706
HAVELSAT                
1 42700U 98067LH  18012.50324260  .00013773  00000-0  14901-3 0  9996
2 42700  51.6387  66.3023 0005403  24.2904 335.8345 15.63894072 37600
SOMP 2                  
1 42701U 98067LJ  18012.35726998  .00013631  00000-0  15064-3 0  9998
2 42701  51.6383  67.5773 0005405  23.7334 336.3909 15.63358388 37567
COLUMBIA                
1 42702U 98067LK  18012.12382897  .00117854  00000-0  56799-3 0  9992
2 42702  51.6316  58.4104 0006857  17.4375 342.6862 15.81720099 37591
SGSAT                   
1 42703U 98067LL  18012.15990708  .00051404  00000-0  36906-3 0  9998
2 42703  51.6338  62.4416 0003545 345.8105  14.2793 15.73115342 37536
CXBN-2                  
1 42704U 98067LM  18012.16613017  .00014382  00000-0  15781-3 0  9997
2 42704  51.6389  68.5571 0002212 336.0894  23.9997 15.63495411 37461
ICECUBE                 
1 42705U 98067LN  18012.39214581  .00024609  00000-0  23744-3 0  9997
2 42705  51.6420  65.6029 0002591 342.4225  17.6681 15.66334142 37582
PHOENIX                 
1 42706U 98067LP  18012.02488733  .00014959  00000-0  16522-3 0  9993
2 42706  51.6384  69.1104 0001500 355.5939   4.5042 15.63290346 37435
X-CUBESAT               
1 42707U 98067LQ  18012.51214820  .00015394  00000-0  16552-3 0  9999
2 42707  51.6367  66.3423 0001764 355.1759   4.9219 15.63953627 37504
QBEE50-LTU-OC           
1 42708U 98067LR  18012.46629437  .00014279  00000-0  15592-3 0  9992
2 42708  51.6381  66.7942 0001750 356.3807   3.7175 15.63628127 37459
ALTAIR PATHFINDER       
1 42711U 98067LS  18012.50443154  .00008689  00000-0  10975-3 0  9999
2 42711  51.6386  69.3060 0003973 325.0355  35.0377 15.60433884 37136
SHARC                   
1 42712U 98067LT  18012.42212785  .00007780  00000-0  10226-3 0  9995
2 42712  51.6403  70.2806 0002282 337.0565  23.0326 15.59549984 37356
ZA-AEROSAT              
1 42713U 98067LU  18012.51254342  .00012494  00000-0  14489-3 0  9994
2 42713  51.6379  67.8629 0002301 323.9545  36.1294 15.62210700 37150
LINK                    
1 42714U 98067LV  18012.41871112  .00023979  00000-0  23140-3 0  9998
2 42714  51.6356  65.7056 0002744 331.6753  28.4094 15.66346296 37285
CSUNSAT 1               
1 42715U 98067LW  18012.50451748  .00012894  00000-0  14804-3 0  9999
2 42715  51.6390  67.8121 0004075 316.8714  43.1960 15.62433657 37157
UPSAT                   
1 42716U 98067LX  18012.49932080  .00020445  00000-0  20565-3 0  9993
2 42716  51.6378  65.5208 0004049  23.4006 336.7173 15.65410291 37318
SPACECUBE               
1 42717U 98067LY  18012.35800373  .00014768  00000-0  16169-3 0  9994
2 42717  51.6377  67.5761 0003991  24.4699 335.6485 15.63524089 36512
HOOPOE                  
1 42718U 98067LZ  18012.36342212  .00015747  00000-0  16564-3 0  9996
2 42718  51.6382  66.8630 0003958  21.7605 338.3557 15.64490525 36525
CHALLENGER              
1 42721U 98067MA  18012.39936012  .00029002  00000-0  26089-3 0  9992
2 42721  51.6365  64.8247 0006405   5.6508 354.4559 15.67956724 36257
NJUST-1                 
1 42722U 98067MB  18012.37035379  .00010771  00000-0  12837-3 0  9996
2 42722  51.6387  69.1640 0006592   8.6802 351.4305 15.61659476 36191
UNSW-ECO                
1 42723U 98067MC  18012.39808583  .00017449  00000-0  18247-3 0  9994
2 42723  51.6392  67.1038 0006274   6.4243 353.6831 15.64538581 36205
DUTHSAT                 
1 42724U 98067MD  18012.50253952  .00027567  00000-0  25449-3 0  9996
2 42724  51.6371  64.7821 0005729   7.5812 352.5270 15.67350846 36163
LILACSAT-1              
1 42725U 98067ME  18012.51591639  .00013368  00000-0  15170-3 0  9999
2 42725  51.6387  67.8881 0005711  10.5819 349.5294 15.62691124 36123
NSIGHT-1                
1 42726U 98067MF  18012.41663155  .00005899  00000-0  80853-4 0  9993
2 42726  51.6401  70.9892 0006059  14.9876 345.1295 15.58949831 36089
SNUSAT-1                
1 42727U 98067MG  18012.39106037  .00012811  00000-0  14593-3 0  9991
2 42727  51.6373  68.5300 0007123 334.5567  25.5076 15.62630180 36070
